[Satellite]
VERSION=1.1
NAME=GOES 13
NICKNAME=GOES 13
TLE1=1 29155U 06018A   19317.58286481 -.00000155  00000-0  00000+0 0  9991
TLE2=2 29155   0.1475  89.4965 0009628 163.7042 168.6794  1.00002353 49378
STATUS=0
